{
 "type": "FeatureCollection",
 "features": [
  {
   "type": "Feature",
   "properties": {
    "line": "sangi-tetsudo.sangi",
    "from_code": "005982",
    "to": "大矢知",
    "note": "Passenger trains start at Kintetsu-Tomida and reach the Sangi Line at the Sangi-Asake signal box over the Kintetsu connecting line (1.1 km), which has no track in N02. Kintetsu-Tomida to the signal box is drawn straight; the signal box to Ōyachi follows N02's Sangi Line track.",
    "source": "Station and signal-box positions: N02 (近鉄富田), Wikipedia 三岐朝明信号場 coordinates",
    "checked": "2026-09-25"
   },
   "geometry": {
    "type": "LineString",
    "coordinates": [
     [
      136.64906,
      35.00594
     ],
     [
      136.648918,
      35.01563
     ],
     [
      136.64789,
      35.01603
     ],
     [
      136.64769,
      35.0161
     ],
     [
      136.6472,
      35.01629
     ],
     [
      136.64707,
      35.01634
     ],
     [
      136.64647,
      35.01657
     ],
     [
      136.6463,
      35.01663
     ],
     [
      136.64613,
      35.0167
     ],
     [
      136.64369,
      35.01762
     ],
     [
      136.64325,
      35.01779
     ],
     [
      136.64298,
      35.0179
     ],
     [
      136.64244,
      35.0181
     ],
     [
      136.64232,
      35.01815
     ],
     [
      136.64194,
      35.0183
     ],
     [
      136.64158,
      35.01844
     ],
     [
      136.64123,
      35.01857
     ],
     [
      136.64106,
      35.01863
     ],
     [
      136.64044,
      35.01887
     ],
     [
      136.63953,
      35.01924
     ],
     [
      136.63877,
      35.01955
     ],
     [
      136.63821,
      35.01979
     ],
     [
      136.63787,
      35.01995
     ],
     [
      136.63753,
      35.0201
     ],
     [
      136.63724,
      35.02024
     ],
     [
      136.63689,
      35.02042
     ],
     [
      136.63603,
      35.02085
     ],
     [
      136.63564,
      35.02104
     ],
     [
      136.63555,
      35.0211
     ],
     [
      136.63528,
      35.02123
     ],
     [
      136.63473,
      35.02151
     ],
     [
      136.6344,
      35.02167
     ],
     [
      136.63383,
      35.02195
     ],
     [
      136.633,
      35.02234
     ]
    ]
   }
  }
 ]
}